IRIDIUM 112             
1 41925U 17003J   24047.60877487  .00000178  00000+0  56404-4 0  9994
2 41925  86.3915  84.2117 0002240  88.4323 271.7130 14.34217117371210
IRIDIUM 111             
1 41926U 17003K   24047.59608945  .00000014  00000+0 -22089-5 0  9997
2 41926  86.3918  84.2690 0001929  88.3861 271.7556 14.34217728371196
IRIDIUM 113             
1 42803U 17039A   24048.13420000  .00000391  00000+0  13239-3 0  9998
2 42803  86.4000 317.8151 0002064  77.3866 282.7560 14.34215175349203
IRIDIUM 123             
1 42804U 17039B   24047.54775670  .00000397  00000+0  13458-3 0  9998
2 42804  86.4016 349.5442 0001992  82.0910 278.0511 14.34222302347884
IRIDIUM 120             
1 42805U 17039C   24048.12786053  .00000381  00000+0  12887-3 0  9999
2 42805  86.3986 317.7104 0002106  84.7041 275.4395 14.34217057349192
IRIDIUM 115             
1 42806U 17039D   24048.15186132  .00000766  00000+0  22180-3 0  9999
2 42806  86.4527 317.7073 0002002  79.3546 280.7881 14.43292107351512
IRIDIUM 118             
1 42807U 17039E   24047.92831926  .00000150  00000+0  46427-4 0  9990
2 42807  86.4019 349.3871 0002201  85.0468 275.0979 14.34216387347936
IRIDIUM 117             
1 42808U 17039F   24047.87756837  .00000382  00000+0  12932-3 0  9992
2 42808  86.4018 349.3738 0001959  84.3247 275.8172 14.34214293347953
